{
    "links": {
        "self": "http://www.neowsapp.com/rest/v1/neo/3454525?api_key=iIulBulltgU6a56xZRHN4H3l9WmuAYTsLGpBGhQ2"
    },
    "id": "3454525",
    "neo_reference_id": "3454525",
    "name": "(2009 FQ)",
    "designation": "2009 FQ",
    "nasa_jpl_url": "http://ssd.jpl.nasa.gov/sbdb.cgi?sstr=3454525",
    "absolute_magnitude_h": 25.7,
    "estimated_diameter": {
        "kilometers": {
            "estimated_diameter_min": 0.0192555078,
            "estimated_diameter_max": 0.0430566244
        },
        "meters": {
            "estimated_diameter_min": 19.2555078188,
            "estimated_diameter_max": 43.0566244241
        },
        "miles": {
            "estimated_diameter_min": 0.0119648141,
            "estimated_diameter_max": 0.0267541378
        },
        "feet": {
            "estimated_diameter_min": 63.1742402722,
            "estimated_diameter_max": 141.2618956756
        }
    },
    "is_potentially_hazardous_asteroid": false,
    "close_approach_data": [
        {
            "close_approach_date": "2009-03-15",
            "close_approach_date_full": "2009-Mar-15 06:46",
            "epoch_date_close_approach": 1237099560000,
            "relative_velocity": {
                "kilometers_per_second": "6.6887132611",
                "kilometers_per_hour": "24079.3677398271",
                "miles_per_hour": "14961.982693672"
            },
            "miss_distance": {
                "astronomical": "0.0392663787",
                "lunar": "15.2746213143",
                "kilometers": "5874166.616133369",
                "miles": "3650037.8807597322"
            },
            "orbiting_body": "Earth"
        }
    ],
    "orbital_data": {
        "orbit_id": "8",
        "orbit_determination_date": "2017-04-06 09:01:00",
        "first_observation_date": "2009-03-17",
        "last_observation_date": "2009-04-02",
        "data_arc_in_days": 16,
        "observations_used": 36,
        "orbit_uncertainty": "8",
        "minimum_orbit_intersection": ".0363903",
        "jupiter_tisserand_invariant": "3.890",
        "epoch_osculation": "2454909.5",
        "eccentricity": ".441683775071921",
        "semi_major_axis": "1.838368470788031",
        "inclination": "6.723283587558233",
        "ascending_node_longitude": "354.7518599835834",
        "orbital_period": "910.4314913575968",
        "perihelion_distance": "1.026390944637179",
        "perihelion_argument": "168.8188972367241",
        "aphelion_distance": "2.650345996938884",
        "perihelion_time": "2454896.621141972085",
        "mean_anomaly": "5.09251814558371",
        "mean_motion": ".3954169022242226",
        "equinox": "J2000",
        "orbit_class": {
            "orbit_class_type": "AMO",
            "orbit_class_description": "Near-Earth asteroid orbits similar to that of 1221 Amor",
            "orbit_class_range": "1.017 AU < q (perihelion) < 1.3 AU"
        }
    },
    "is_sentry_object": false
}